{"type": "FeatureCollection", "features": [ {"type": "Feature", "properties": {"norad_id": 40664, "name": "SKY MEXICO-1", "group": "intelsat", "lat": -0.03269509876642806, "lon": -96.54845988483595, "alt_km": 35776.81612993401, "timestamp": "2025-12-19T16:54:43.918989+00:00", "meta": {"OBJECT_NAME": "SKY MEXICO-1", "OBJECT_ID": "2015-026B", "EPOCH": "2025-12-19T06:13:04.228608", "MEAN_MOTION": 1.00272351, "ECCENTRICITY": 0.00023099, "INCLINATION": 0.012, "RA_OF_ASC_NODE": 319.4743, "ARG_OF_PERICENTER": 324.7762, "MEAN_ANOMALY": 178.3656, "EPHEMERIS_TYPE": 0, "CLASSIFICATION_TYPE": "U", "NORAD_CAT_ID": 40664, "ELEMENT_SET_NO": 999, "REV_AT_EPOCH": 3865, "BSTAR": 0, "MEAN_MOTION_DOT": -2.1e-06, "MEAN_MOTION_DDOT": 0}, "tle": {"line1": "1 40664U 15026B   25353.25907672 -.00000210  00000+0  00000+0 0  9992", "line2": "2 40664   0.0120 319.4743 0002309 324.7762 178.3656  1.00272351 38650"}}, "geometry": {"type": "Point", "coordinates": [-96.54845988483595, -0.03269509876642806]}}, {"type": "Feature", "properties": {"norad_id": 40874, "name": "INTELSAT 34 (IS-34)", "group": "intelsat", "lat": -0.03749012211222198, "lon": -73.29176878067223, "alt_km": 35788.898047715375, "timestamp": "2025-12-19T16:54:43.919000+00:00", "meta": {"OBJECT_NAME": "INTELSAT 34 (IS-34)", "OBJECT_ID": "2015-039A", "EPOCH": "2025-12-18T19:52:46.782336", "MEAN_MOTION": 1.00269757, "ECCENTRICITY": 5.944e-05, "INCLINATION": 0.0159, "RA_OF_ASC_NODE": 344.6956, "ARG_OF_PERICENTER": 153.3113, "MEAN_ANOMALY": 192.3634, "EPHEMERIS_TYPE": 0, "CLASSIFICATION_TYPE": "U", "NORAD_CAT_ID": 40874, "ELEMENT_SET_NO": 999, "REV_AT_EPOCH": 3781, "BSTAR": 0, "MEAN_MOTION_DOT": -2.6e-06, "MEAN_MOTION_DDOT": 0}, "tle": {"line1": "1 40874U 15039A   25352.82831924 -.00000260  00000+0  00000+0 0  9992", "line2": "2 40874   0.0159 344.6956 0000594 153.3113 192.3634  1.00269757 37816"}}, "geometry": {"type": "Point", "coordinates": [-73.29176878067223, -0.03749012211222198]}}, {"type": "Feature", "properties": {"norad_id": 41581, "name": "INTELSAT 31 (IS-31)", "group": "intelsat", "lat": -0.02408824137295034, "lon": -112.81511503510922, "alt_km": 35780.24325193176, "timestamp": "2025-12-19T16:54:43.919012+00:00", "meta": {"OBJECT_NAME": "INTELSAT 31 (IS-31)", "OBJECT_ID": "2016-035A", "EPOCH": "2025-12-18T19:41:32.858016", "MEAN_MOTION": 1.00271066, "ECCENTRICITY": 0.00019884, "INCLINATION": 0.0228, "RA_OF_ASC_NODE": 273.6203, "ARG_OF_PERICENTER": 289.9223, "MEAN_ANOMALY": 84.472, "EPHEMERIS_TYPE": 0, "CLASSIFICATION_TYPE": "U", "NORAD_CAT_ID": 41581, "ELEMENT_SET_NO": 999, "REV_AT_EPOCH": 3487, "BSTAR": 0, "MEAN_MOTION_DOT": -1.26e-06, "MEAN_MOTION_DDOT": 0}, "tle": {"line1": "1 41581U 16035A   25352.82051919 -.00000126  00000+0  00000+0 0  9994", "line2": "2 41581   0.0228 273.6203 0001988 289.9223  84.4720  1.00271066 34877"}}, "geometry": {"type": "Point", "coordinates": [-112.81511503510922, -0.02408824137295034]}}, {"type": "Feature", "properties": {"norad_id": 41747, "name": "INTELSAT 36 (IS-36)", "group": "intelsat", "lat": 0.02919777621247648, "lon": 50.720591232304535, "alt_km": 35784.51751606447, "timestamp": "2025-12-19T16:54:43.919024+00:00", "meta": {"OBJECT_NAME": "INTELSAT 36 (IS-36)", "OBJECT_ID": "2016-053A", "EPOCH": "2025-12-18T20:14:05.489376", "MEAN_MOTION": 1.00271742, "ECCENTRICITY": 0.00014506, "INCLINATION": 0.0127, "RA_OF_ASC_NODE": 10.7493, "ARG_OF_PERICENTER": 324.8312, "MEAN_ANOMALY": 124.1251, "EPHEMERIS_TYPE": 0, "CLASSIFICATION_TYPE": "U", "NORAD_CAT_ID": 41747, "ELEMENT_SET_NO": 999, "REV_AT_EPOCH": 3414, "BSTAR": 0, "MEAN_MOTION_DOT": 1e-08, "MEAN_MOTION_DDOT": 0}, "tle": {"line1": "1 41747U 16053A   25352.84311909  .00000001  00000+0  00000+0 0  9999", "line2": "2 41747   0.0127  10.7493 0001450 324.8312 124.1251  1.00271742 34144"}}, "geometry": {"type": "Point", "coordinates": [50.720591232304535, 0.02919777621247648]}}, {"type": "Feature", "properties": {"norad_id": 41945, "name": "INTELSAT 32E (IS-32E)", "group": "intelsat", "lat": -0.036736557743649687, "lon": -60.971260243753974, "alt_km": 35786.7322777551, "timestamp": "2025-12-19T16:54:43.919036+00:00", "meta": {"OBJECT_NAME": "INTELSAT 32E (IS-32E)", "OBJECT_ID": "2017-007B", "EPOCH": "2025-12-19T06:12:37.307232", "MEAN_MOTION": 1.00269829, "ECCENTRICITY": 7.095e-05, "INCLINATION": 0.0325, "RA_OF_ASC_NODE": 74.0804, "ARG_OF_PERICENTER": 315.5885, "MEAN_ANOMALY": 108.4146, "EPHEMERIS_TYPE": 0, "CLASSIFICATION_TYPE": "U", "NORAD_CAT_ID": 41945, "ELEMENT_SET_NO": 999, "REV_AT_EPOCH": 3242, "BSTAR": 0, "MEAN_MOTION_DOT": -2.44e-06, "MEAN_MOTION_DDOT": 0}, "tle": {"line1": "1 41945U 17007B   25353.25876513 -.00000244  00000+0  00000+0 0  9992", "line2": "2 41945   0.0325  74.0804 0000709 315.5885 108.4146  1.00269829 32421"}}, "geometry": {"type": "Point", "coordinates": [-60.971260243753974, -0.036736557743649687]}}, {"type": "Feature", "properties": {"norad_id": 42818, "name": "INTELSAT 35E (IS-35E)", "group": "intelsat", "lat": -0.03907058024064076, "lon": -52.251552909419836, "alt_km": 35779.878287176834, "timestamp": "2025-12-19T16:54:43.919048+00:00", "meta": {"OBJECT_NAME": "INTELSAT 35E (IS-35E)", "OBJECT_ID": "2017-041A", "EPOCH": "2025-12-19T06:15:07.067808", "MEAN_MOTION": 1.00271425, "ECCENTRICITY": 0.00018388, "INCLINATION": 0.0196, "RA_OF_ASC_NODE": 27.2042, "ARG_OF_PERICENTER": 245.1934, "MEAN_ANOMALY": 235.0084, "EPHEMERIS_TYPE": 0, "CLASSIFICATION_TYPE": "U", "NORAD_CAT_ID": 42818, "ELEMENT_SET_NO": 999, "REV_AT_EPOCH": 3101, "BSTAR": 0, "MEAN_MOTION_DOT": -2.13e-06, "MEAN_MOTION_DDOT": 0}, "tle": {"line1": "1 42818U 17041A   25353.26049847 -.00000213  00000+0  00000+0 0  9999", "line2": "2 42818   0.0196  27.2042 0001838 245.1934 235.0084  1.00271425 31015"}}, "geometry": {"type": "Point", "coordinates": [-52.251552909419836, -0.03907058024064076]}}, {"type": "Feature", "properties": {"norad_id": 42950, "name": "INTELSAT 37E (IS-37E)", "group": "intelsat", "lat": -0.03566327214929997, "lon": -35.76380352589141, "alt_km": 35781.57273436965, "timestamp": "2025-12-19T16:54:43.919060+00:00", "meta": {"OBJECT_NAME": "INTELSAT 37E (IS-37E)", "OBJECT_ID": "2017-059A", "EPOCH": "2025-12-19T06:19:51.614112", "MEAN_MOTION": 1.00269461, "ECCENTRICITY": 0.00029657, "INCLINATION": 0.027, "RA_OF_ASC_NODE": 13.9595, "ARG_OF_PERICENTER": 244.5194, "MEAN_ANOMALY": 266.5879, "EPHEMERIS_TYPE": 0, "CLASSIFICATION_TYPE": "U", "NORAD_CAT_ID": 42950, "ELEMENT_SET_NO": 999, "REV_AT_EPOCH": 3026, "BSTAR": 0, "MEAN_MOTION_DOT": 0, "MEAN_MOTION_DDOT": 0}, "tle": {"line1": "1 42950U 17059A   25353.26379183  .00000000  00000+0  00000+0 0  9997", "line2": "2 42950   0.0270  13.9595 0002965 244.5194 266.5879  1.00269461 30267"}}, "geometry": {"type": "Point", "coordinates": [-35.76380352589141, -0.03566327214929997]}}, {"type": "Feature", "properties": {"norad_id": 43632, "name": "AZERSPACE 2 (IS-38)", "group": "intelsat", "lat": 0.022293219994204114, "lon": 27.342880492841527, "alt_km": 35786.53370077604, "timestamp": "2025-12-19T16:54:43.919071+00:00", "meta": {"OBJECT_NAME": "AZERSPACE 2 (IS-38)", "OBJECT_ID": "2018-074A", "EPOCH": "2025-12-18T20:21:29.033280", "MEAN_MOTION": 1.00272443, "ECCENTRICITY": 0.00012971, "INCLINATION": 0.0272, "RA_OF_ASC_NODE": 8.6772, "ARG_OF_PERICENTER": 281.0733, "MEAN_ANOMALY": 148.4292, "EPHEMERIS_TYPE": 0, "CLASSIFICATION_TYPE": "U", "NORAD_CAT_ID": 43632, "ELEMENT_SET_NO": 999, "REV_AT_EPOCH": 2663, "BSTAR": 0, "MEAN_MOTION_DOT": 0, "MEAN_MOTION_DDOT": 0}, "tle": {"line1": "1 43632U 18074A   25352.84825270  .00000000  00000+0  00000+0 0  9999", "line2": "2 43632   0.0272   8.6772 0001297 281.0733 148.4292  1.00272443 26634"}}, "geometry": {"type": "Point", "coordinates": [27.342880492841527, 0.022293219994204114]}}, {"type": "Feature", "properties": {"norad_id": 43633, "name": "HORIZONS-3E", "group": "intelsat", "lat": -0.010181542230443158, "lon": 151.19917947400378, "alt_km": 35788.39770650713, "timestamp": "2025-12-19T16:54:43.919083+00:00", "meta": {"OBJECT_NAME": "HORIZONS-3E", "OBJECT_ID": "2018-074B", "EPOCH": "2025-12-19T05:30:26.347968", "MEAN_MOTION": 1.00271217, "ECCENTRICITY": 6.326e-05, "INCLINATION": 0.0513, "RA_OF_ASC_NODE": 183.0597, "ARG_OF_PERICENTER": 112.6135, "MEAN_ANOMALY": 44, "EPHEMERIS_TYPE": 0, "CLASSIFICATION_TYPE": "U", "NORAD_CAT_ID": 43633, "ELEMENT_SET_NO": 999, "REV_AT_EPOCH": 2653, "BSTAR": 0, "MEAN_MOTION_DOT": -6e-08, "MEAN_MOTION_DDOT": 0}, "tle": {"line1": "1 43633U 18074B   25353.22947162 -.00000006  00000+0  00000+0 0  9995", "line2": "2 43633   0.0513 183.0597 0000632 112.6135  44.0000  1.00271217 26538"}}, "geometry": {"type": "Point", "coordinates": [151.19917947400378, -0.010181542230443158]}}, {"type": "Feature", "properties": {"norad_id": 44333, "name": "AT&T T-16", "group": "intelsat", "lat": -0.01613251482705395, "lon": -118.62831368212188, "alt_km": 35786.70894631036, "timestamp": "2025-12-19T16:54:43.919095+00:00", "meta": {"OBJECT_NAME": "AT&T T-16", "OBJECT_ID": "2019-034A", "EPOCH": "2025-12-18T23:05:13.350912", "MEAN_MOTION": 1.00272379, "ECCENTRICITY": 9.692e-05, "INCLINATION": 0.0254, "RA_OF_ASC_NODE": 65.8421, "ARG_OF_PERICENTER": 74.8034, "MEAN_ANOMALY": 192.6147, "EPHEMERIS_TYPE": 0, "CLASSIFICATION_TYPE": "U", "NORAD_CAT_ID": 44333, "ELEMENT_SET_NO": 999, "REV_AT_EPOCH": 2382, "BSTAR": 0, "MEAN_MOTION_DOT": -9.1e-07, "MEAN_MOTION_DDOT": 0}, "tle": {"line1": "1 44333U 19034A   25352.96196008 -.00000091  00000+0  00000+0 0  9999", "line2": "2 44333   0.0254  65.8421 0000969  74.8034 192.6147  1.00272379 23822"}}, "geometry": {"type": "Point", "coordinates": [-118.62831368212188, -0.01613251482705395]}}]}